{
    "links": {
        "self": "http://www.neowsapp.com/rest/v1/neo/54016679?api_key=iIulBulltgU6a56xZRHN4H3l9WmuAYTsLGpBGhQ2"
    },
    "id": "54016679",
    "neo_reference_id": "54016679",
    "name": "(2020 HD4)",
    "designation": "2020 HD4",
    "nasa_jpl_url": "http://ssd.jpl.nasa.gov/sbdb.cgi?sstr=54016679",
    "absolute_magnitude_h": 24.949,
    "estimated_diameter": {
        "kilometers": {
            "estimated_diameter_min": 0.0272116563,
            "estimated_diameter_max": 0.0608471132
        },
        "meters": {
            "estimated_diameter_min": 27.2116562806,
            "estimated_diameter_max": 60.8471132238
        },
        "miles": {
            "estimated_diameter_min": 0.0169085341,
            "estimated_diameter_max": 0.0378086316
        },
        "feet": {
            "estimated_diameter_min": 89.2770903917,
            "estimated_diameter_max": 199.6296429492
        }
    },
    "is_potentially_hazardous_asteroid": false,
    "close_approach_data": [
        {
            "close_approach_date": "2020-05-11",
            "close_approach_date_full": "2020-May-11 18:39",
            "epoch_date_close_approach": 1589222340000,
            "relative_velocity": {
                "kilometers_per_second": "6.3501029981",
                "kilometers_per_hour": "22860.3707930258",
                "miles_per_hour": "14204.5453963665"
            },
            "miss_distance": {
                "astronomical": "0.0944039023",
                "lunar": "36.7231179947",
                "kilometers": "14122622.703768101",
                "miles": "8775390.8278417538"
            },
            "orbiting_body": "Earth"
        }
    ],
    "orbital_data": {
        "orbit_id": "8",
        "orbit_determination_date": "2020-08-22 06:33:37",
        "first_observation_date": "2020-04-15",
        "last_observation_date": "2020-05-19",
        "data_arc_in_days": 34,
        "observations_used": 59,
        "orbit_uncertainty": "6",
        "minimum_orbit_intersection": ".0933152",
        "jupiter_tisserand_invariant": "3.425",
        "epoch_osculation": "2459000.5",
        "eccentricity": ".5140823186975929",
        "semi_major_axis": "2.264408025608763",
        "inclination": "5.349677874864823",
        "ascending_node_longitude": "218.3019823728018",
        "orbital_period": "1244.601886874327",
        "perihelion_distance": "1.100315897326372",
        "perihelion_argument": "17.01770801467518",
        "aphelion_distance": "3.428500153891154",
        "perihelion_time": "2458984.500034287669",
        "mean_anomaly": "4.627975995524675",
        "mean_motion": ".2892491195751744",
        "equinox": "J2000",
        "orbit_class": {
            "orbit_class_type": "AMO",
            "orbit_class_description": "Near-Earth asteroid orbits similar to that of 1221 Amor",
            "orbit_class_range": "1.017 AU < q (perihelion) < 1.3 AU"
        }
    },
    "is_sentry_object": false
}